COMMENT,ORIGINATOR,NORAD_CAT_ID,OBJECT_NAME,OBJECT_TYPE,CLASSIFICATION_TYPE,INTLDES,EPOCH,EPOCH_MICROSECONDS,MEAN_MOTION,ECCENTRICITY,INCLINATION,RA_OF_ASC_NODE,ARG_OF_PERICENTER,MEAN_ANOMALY,EPHEMERIS_TYPE,ELEMENT_SET_NO,REV_AT_EPOCH,BSTAR,MEAN_MOTION_DOT,MEAN_MOTION_DDOT,FILE,TLE_LINE0,TLE_LINE1,TLE_LINE2,OBJECT_ID,OBJECT_NUMBER,SEMIMAJOR_AXIS,PERIOD,APOGEE,PERIGEE,DECAYED
"GENERATED VIA SPACETRACK.ORG API","18 SPCS","51110","STARLINK-3344","PAYLOAD","U","22005G","2022-10-28 19:27:07","371072","15.08848883","0.0002151","53.217","41.2944","34.4832","325.63","0","999","4462","0.00013471","0.00001857","0","3636959","0 STARLINK-3344","1 51110U 22005G   22301.81050198  .00001857  00000-0  13471-3 0  9997","2 51110  53.2170  41.2944 0002151  34.4832 325.6300 15.08848883 44623","2022-005G","51110","6917.853","95.437","541.206","538.230","0"
"GENERATED VIA SPACETRACK.ORG API","18 SPCS","51110","STARLINK-3344","PAYLOAD","U","22005G","2022-10-28 19:27:07","371072","15.08848883","0.0002151","53.217","41.2944","34.4832","325.63","0","999","4351","0.00013471","0.00001857","0","3637111","0 STARLINK-3344","1 51110U 22005G   22301.81050198  .00001857  00000-0  13471-3 0  9997","2 51110  53.2170  41.2944 0002151  34.4832 325.6300 15.08848883 43510","2022-005G","51110","6917.853","95.437","541.206","538.230","0"
"GENERATED VIA SPACETRACK.ORG API","18 SPCS","51110","STARLINK-3344","PAYLOAD","U","22005G","2022-10-29 00:13:16","647744","15.08853088","0.0001995","53.2175","40.4024","38.249","321.8644","0","999","4354","0.00022446","0.00003287","0","3637424","0 STARLINK-3344","1 51110U 22005G   22302.00922046  .00003287  00000-0  22446-3 0  9990","2 51110  53.2175  40.4024 0001995  38.2490 321.8644 15.08853088 43547","2022-005G","51110","6917.840","95.437","541.085","538.325","0"
"GENERATED VIA SPACETRACK.ORG API","18 SPCS","51110","STARLINK-3344","PAYLOAD","U","22005G","2022-10-29 20:53:17","165184","15.08846981","0.000232","53.2174","36.5365","39.5362","320.5799","0","999","4478","0.000057445","0.00000626","0","3637649","0 STARLINK-3344","1 51110U 22005G   22302.87033756  .00000626  00000-0  57445-4 0  9998","2 51110  53.2174  36.5365 0002320  39.5362 320.5799 15.08846981 44783","2022-005G","51110","6917.859","95.437","541.329","538.119","0"
"GENERATED VIA SPACETRACK.ORG API","18 SPCS","51110","STARLINK-3344","PAYLOAD","U","22005G","2022-10-29 20:53:17","165184","15.08846981","0.000232","53.2174","36.5365","39.5362","320.5799","0","999","4367","0.000057445","0.00000626","0","3637863","0 STARLINK-3344","1 51110U 22005G   22302.87033756  .00000626  00000-0  57445-4 0  9998","2 51110  53.2174  36.5365 0002320  39.5362 320.5799 15.08846981 43670","2022-005G","51110","6917.859","95.437","541.329","538.119","0"
"GENERATED VIA SPACETRACK.ORG API","18 SPCS","51110","STARLINK-3344","PAYLOAD","U","22005G","2022-10-30 11:11:45","911904","15.08831019","0.0001921","53.2176","33.8599","35.0987","325.0131","0","999","4376","-0.00018972","-0.00003306","0","3637867","0 STARLINK-3344","1 51110U 22005G   22303.46650361 -.00003306  00000-0 -18972-3 0  9992","2 51110  53.2176  33.8599 0001921  35.0987 325.0131 15.08831019 43767","2022-005G","51110","6917.908","95.438","541.102","538.444","0"
"GENERATED VIA SPACETRACK.ORG API","18 SPCS","51110","STARLINK-3344","PAYLOAD","U","22005G","2022-10-30 19:08:41","649792","15.08835984","0.0002048","53.2176","32.3735","30.5093","329.6018","0","999","4381","-0.000048962","-0.00001067","0","3637924","0 STARLINK-3344","1 51110U 22005G   22303.79770428 -.00001067  00000-0 -48962-4 0  9990","2 51110  53.2176  32.3735 0002048  30.5093 329.6018 15.08835984 43817","2022-005G","51110","6917.893","95.438","541.174","538.341","0"
"GENERATED VIA SPACETRACK.ORG API","18 SPCS","51110","STARLINK-3344","PAYLOAD","U","22005G","2022-10-31 11:02:32","972640","15.08840751","0.0002151","53.2177","29.3999","30.0946","330.017","0","999","4391","0.000050905","0.00000522","0","3638016","0 STARLINK-3344","1 51110U 22005G   22304.46010385  .00000522  00000-0  50905-4 0  9997","2 51110  53.2177  29.3999 0002151  30.0946 330.0170 15.08840751 43917","2022-005G","51110","6917.878","95.438","541.231","538.255","0"
"GENERATED VIA SPACETRACK.ORG API","18 SPCS","51110","STARLINK-3344","PAYLOAD","U","22005G","2022-10-31 18:59:29","65632","15.08837131","0.0002163","53.2182","27.9134","32.5431","327.5694","0","999","4507","-0.00002545","-0.00000693","0","3638672","0 STARLINK-3344","1 51110U 22005G   22304.79130863 -.00000693  00000-0 -25450-4 0  9995","2 51110  53.2182  27.9134 0002163  32.5431 327.5694 15.08837131 45076","2022-005G","51110","6917.889","95.438","541.250","538.258","0"
"GENERATED VIA SPACETRACK.ORG API","18 SPCS","51110","STARLINK-3344","PAYLOAD","U","22005G","2022-10-31 20:34:52","218912","15.08835432","0.0002304","53.2177","27.6161","31.4158","328.6972","0","999","4397","0.0000028992","-0.00000242","0","3639522","0 STARLINK-3344","1 51110U 22005G   22304.85754883 -.00000242  00000-0  28992-5 0  9990","2 51110  53.2177  27.6161 0002304  31.4158 328.6972 15.08835432 43978","2022-005G","51110","6917.894","95.438","541.353","538.165","0"
"GENERATED VIA SPACETRACK.ORG API","18 SPCS","51110","STARLINK-3344","PAYLOAD","U","22005G","2022-11-01 12:28:44","51520","15.08832482","0.0002282","53.2177","24.6426","30.101","330.0113","0","999","4407","0.00017261","0.00002459","0","3640409","0 STARLINK-3344","1 51110U 22005G   22305.51995430  .00002459  00000-0  17261-3 0  9995","2 51110  53.2177  24.6426 0002282  30.1010 330.0113 15.08832482 44075","2022-005G","51110","6917.903","95.438","541.347","538.190","0"
"GENERATED VIA SPACETRACK.ORG API","18 SPCS","51110","STARLINK-3344","PAYLOAD","U","22005G","2022-11-01 17:14:53","100960","15.08841915","0.0002236","53.2177","23.7503","31.558","328.5546","0","999","4410","0.00020466","0.00002971","0","3640431","0 STARLINK-3344","1 51110U 22005G   22305.71867015  .00002971  00000-0  20466-3 0  9994","2 51110  53.2177  23.7503 0002236  31.5580 328.5546 15.08841915 44104","2022-005G","51110","6917.875","95.437","541.286","538.193","0"
"GENERATED VIA SPACETRACK.ORG API","18 SPCS","51110","STARLINK-3344","PAYLOAD","U","22005G","2022-11-02 02:47:12","22368","15.08841957","0.0002229","53.2179","21.966","29.925","330.1869","0","999","4527","0.00016746","0.00002378","0","3640835","0 STARLINK-3344","1 51110U 22005G   22306.11611137  .00002378  00000-0  16746-3 0  9998","2 51110  53.2179  21.9660 0002229  29.9250 330.1869 15.08841957 45279","2022-005G","51110","6917.874","95.437","541.281","538.197","0"
"GENERATED VIA SPACETRACK.ORG API","18 SPCS","51110","STARLINK-3344","PAYLOAD","U","22005G","2022-11-02 12:19:31","165824","15.08834868","0.0002253","53.218","20.1818","30.9922","329.1202","0","999","4422","0.000040249","0.00000352","0","3642416","0 STARLINK-3344","1 51110U 22005G   22306.51355516  .00000352  00000-0  40249-4 0  9994","2 51110  53.2180  20.1818 0002253  30.9922 329.1202 15.08834868 44228","2022-005G","51110","6917.896","95.438","541.320","538.202","0"
"GENERATED VIA SPACETRACK.ORG API","18 SPCS","51110","STARLINK-3344","PAYLOAD","U","22005G","2022-11-02 17:05:41","253792","15.08822485","0.0002363","53.2179","19.2896","32.7394","327.3744","0","999","4536","-0.00015688","-0.00002783","0","3642781","0 STARLINK-3344","1 51110U 22005G   22306.71228303 -.00002783  00000-0 -15688-3 0  9999","2 51110  53.2179  19.2896 0002363  32.7394 327.3744 15.08822485 45365","2022-005G","51110","6917.934","95.439","541.434","538.164","0"
"GENERATED VIA SPACETRACK.ORG API","18 SPCS","51110","STARLINK-3344","PAYLOAD","U","22005G","2022-11-03 12:10:18","36480","15.08853783","0.0002335","53.2175","15.722","32.2637","327.8497","0","999","4548","0.00046486","0.00007121","0","3643604","0 STARLINK-3344","1 51110U 22005G   22307.50715320  .00007121  00000-0  46486-3 0  9996","2 51110  53.2175  15.7220 0002335  32.2637 327.8497 15.08853783 45485","2022-005G","51110","6917.838","95.437","541.319","538.088","0"
"GENERATED VIA SPACETRACK.ORG API","18 SPCS","51110","STARLINK-3344","PAYLOAD","U","22005G","2022-11-03 12:10:18","36480","15.08853783","0.0002335","53.2175","15.722","32.2637","327.8497","0","999","4437","0.00046486","0.00007121","0","3643813","0 STARLINK-3344","1 51110U 22005G   22307.50715320  .00007121  00000-0  46486-3 0  9996","2 51110  53.2175  15.7220 0002335  32.2637 327.8497 15.08853783 44372","2022-005G","51110","6917.838","95.437","541.319","538.088","0"
"GENERATED VIA SPACETRACK.ORG API","18 SPCS","51110","STARLINK-3344","PAYLOAD","U","22005G","2022-11-03 16:56:27","378816","15.08871841","0.0002332","53.2172","14.8293","31.7532","328.36","0","999","4551","0.0016026","0.00025332","0","3643921","0 STARLINK-3344","1 51110U 22005G   22307.70587244  .00025332  00000-0  16026-2 0  9990","2 51110  53.2172  14.8293 0002332  31.7532 328.3600 15.08871841 45518","2022-005G","51110","6917.783","95.436","541.261","538.035","0"
"GENERATED VIA SPACETRACK.ORG API","18 SPCS","51110","STARLINK-3344","PAYLOAD","U","22005G","2022-11-03 16:56:27","378816","15.08871841","0.0002332","53.2172","14.8293","31.7532","328.36","0","999","4440","0.0016026","0.00025332","0","3644033","0 STARLINK-3344","1 51110U 22005G   22307.70587244  .00025332  00000-0  16026-2 0  9990","2 51110  53.2172  14.8293 0002332  31.7532 328.3600 15.08871841 44405","2022-005G","51110","6917.783","95.436","541.261","538.035","0"
"GENERATED VIA SPACETRACK.ORG API","18 SPCS","51110","STARLINK-3344","PAYLOAD","U","22005G","2022-11-04 08:50:17","644128","15.08876225","0.0002131","53.217","11.8562","31.2294","328.8825","0","999","4561","0.00084967","0.00013274","0","3644585","0 STARLINK-3344","1 51110U 22005G   22308.36825977  .00013274  00000-0  84967-3 0  9993","2 51110  53.2170  11.8562 0002131  31.2294 328.8825 15.08876225 45615","2022-005G","51110","6917.770","95.435","541.109","538.160","0"
